P/2020 G1 (Pimentel),e,18.5095,240.1254,207.5952,3.608365,0.1437932,0.86036624,163.1173,04/26.0/2023,2000,g 17.0,4.0
# From MPEC 2022-YB4
C/2020 H2 (Pruyne),e,124.9172,277.6646,26.6696,189.8009,0.0003769,0.99561950,0.0000,04/27.8204/2020,2000,g 14.0,3.2
# From MPEC 2020-HM1
C/2020 H3 (Wierzchos),p,06/05.7162/2020,62.5292,30.4456,2.300288,270.6227,2000,13.5,4.0
# From MPEC 2020-L06
C/2020 H4 (Leonard),e,84.4976,307.6511,117.5444,47.86023,0.0029767,0.98068068,0.0000,08/29.6389/2020,2000,g 15.0,3.2
# From MPEC 2023-HD1
C/2020 H5 (Robinson),e,70.2547,210.6274,326.3421,3869,0.0000041,0.99758529,0.0000,12/10.8422/2020,2000,g  9.3,4.0
# From MPEC 2023-HD1
C/2020 H6 (ATLAS),e,79.9777,213.7191,20.3060,10492,0.0000009,0.99955185,0.0000,09/30.7137/2021,2000,g  9.4,4.0
# From MPEC 2020-KB7
C/2020 H7 (Lemmon),e,135.9235,323.5194,82.6780,1405,0.0000187,0.99685380,0.0000,06/02.9510/2020,2000,g 11.0,4.0
# From MPEC 2021-N06
C/2020 H8 (PANSTARRS),e,99.6875,68.4259,128.9384,597.3471,0.0000675,0.99217390,0.0000,06/04.5093/2020,2000,g 10.5,4.0
# From MPEC 2022-ED3
A/2020 H9,e,137.8788,213.1805,312.8352,371.2165,0.0001378,0.99306593,0.0000,12/21.6274/2019,2000,g 18.0,2.0
# From MPEC 2023-HD1
C/2020 J1 (SONEAR),h,04/18.6328/2021,142.3050,226.6037,341.7440,1.000752,3.353409,2000,9.0,4.0
# From MPEC 2023-HD1
C/2020 K1 (PANSTARRS),e,89.6706,94.3553,213.9843,182230,0.0000000,0.99998314,0.0000,05/09.0827/2023,2000,g  8.6,4.0
# From MPEC 2021-N06
C/2020 K2 (PANSTARRS),h,08/06.3531/2020,91.0281,288.3931,67.3506,1.003884,8.879889,2000,10.8,4.0
# From MPEC 2020-KF9
C/2020 K3 (Leonard),p,06/01.0032/2020,129.0152,64.4924,1.583069,28.3546,2000,14.5,4.0
# From MPEC 2020-L06
C/2020 K4 (PANSTARRS),e,125.5828,264.1928,308.8611,23.96225,0.0084026,0.92681306,9.6466,04/26.0/2023,2000,g 16.5,4.0
# From MPEC 2021-R75
C/2020 K5 (PANSTARRS),h,06/05.4683/2021,67.1164,86.1623,249.6114,1.001378,1.536736,2000,11.0,4.0
# From MPEC 2023-HD1
C/2020 K6 (Rankin),h,09/15.8288/2021,103.6497,291.5528,44.3361,1.003682,5.868868,2000,11.6,4.0
# From MPEC 2023-A50
C/2020 K7 (PANSTARRS),e,32.0418,286.0796,358.2552,98.69978,0.0010051,0.93522173,1.2824,04/26.0/2023,2000,g  8.0,4.0
# From MPEC 2021-P47
C/2020 K8 (Catalina-ATLAS),h,09/14.8378/2020,31.4259,181.5360,259.9602,1.000183,0.472018,2000,15.0,3.2
# From MPEC 2021-BE3
P/2020 K9 (Lemmon-PANSTARRS),e,23.2081,166.2438,197.0583,4.202816,0.1143914,0.32127438,91.8109,04/26.0/2023,2000,g 12.5,4.0
# From MPEC 2023-C45
P/2020 M1 (PANSTARRS),e,8.5384,142.6306,72.6465,5.317140,0.0803872,0.47378806,97.8257,04/26.0/2023,2000,g 14.5,4.0
# From MPEC 2022-H30
C/2020 M3 (ATLAS),e,23.4769,71.1613,328.5578,27.09655,0.0069877,0.95318688,6.3736,04/26.0/2023,2000,g 14.5,4.0
# From MPEC 2023-B57
A/2020 M4,h,11/24.1800/2020,160.1254,348.6229,104.6365,1.001033,5.950885,2000,14.5,2.0
# From MPC xxxxx
P/2020 MK4 (PANSTARRS),e,6.7992,0.7155,103.3861,6.204499,0.0637741,0.01180502,257.4447,04/26.0/2023,2000,g  8.0,4.0
# From MPEC 2023-FK0
C/2020 M5 (ATLAS),h,08/19.8584/2021,93.2194,352.0901,126.3054,1.000400,3.002884,2000,9.0,4.0
# From MPEC 2022-GA9
C/2020 N1 (PANSTARRS),h,03/12.3458/2021,29.7250,279.9280,186.7602,1.000468,1.318598,2000,12.5,4.0
# From MPEC 2021-P47
C/2020 N2 (ATLAS),e,161.0338,257.1579,331.3137,104.5192,0.0009224,0.98284769,0.0000,08/24.0799/2020,2000,g 16.0,3.2
# From MPEC 2023-HD1
C/2020 O2 (Amaral),h,08/28.5244/2021,71.7602,256.7723,10.3045,1.001612,4.862407,2000,9.4,4.0
# From MPEC 2023-C45
P/2020 O3 (PANSTARRS),e,8.4442,266.8186,81.6436,4.647789,0.0983636,0.10313468,80.2409,04/26.0/2023,2000,g 12.0,4.0
# From MPEC 2021-BE3
C/2020 P1 (NEOWISE),h,10/20.4295/2020,45.1726,53.4863,8.8904,1.000316,0.341011,2000,14.0,3.2
# From MPEC 2023-HD1
C/2020 P3 (ATLAS),h,04/21.3535/2021,61.8893,19.4657,82.2751,1.001432,6.812554,2000,9.7,4.0
# From MPEC 2022-PB4
C/2020 PV6 (PANSTARRS),e,128.2269,329.1489,71.3850,42.06638,0.0036124,0.94544196,2.0841,04/26.0/2023,2000,g 10.0,4.0
# From MPEC 2022-L66
C/2020 Q1 (Borisov),e,142.9419,52.3895,9.9563,60.90848,0.0020734,0.97836319,0.0000,08/14.4271/2020,2000,g 14.0,4.0
# From MPEC 2023-CD7
C/2020 Q2 (PANSTARRS),e,3.3362,179.8287,118.2650,10.64837,0.0283648,0.49217045,33.5296,04/26.0/2023,2000,g 12.0,3.2
# From MPEC 2022-X67
C/2020 R2 (PANSTARRS),e,53.2282,195.0934,211.7927,409.5244,0.0001189,0.98854082,0.0000,02/24.8955/2022,2000,g  9.0,4.0
# From MPEC 2022-K19
C/2020 R4 (ATLAS),e,164.4518,323.2724,46.6879,99.80949,0.0009884,0.98971069,0.0000,03/02.1652/2021,2000,g 13.5,4.0
# From MPEC 2023-C45
P/2020 R5 (PANSTARRS),e,11.4451,272.9691,82.6189,4.987444,0.0884885,0.31449035,93.9337,04/26.0/2023,2000,g  9.5,6.0
# From MPEC 2021-Y10
C/2020 R6 (Rankin),e,82.8127,12.1785,271.9920,315.8563,0.0001756,0.99007780,0.0000,09/08.5432/2019,2000,g 11.0,4.0
# From MPEC 2023-HD1
C/2020 R7 (ATLAS),h,09/16.2523/2022,114.8960,268.2839,347.8414,1.000233,2.955987,2000,10.2,4.0
# From MPEC 2021-BE3
P/2020 S1 (PANSTARRS),e,13.7281,129.4622,255.0281,5.993036,0.0671790,0.50773280,55.6549,04/26.0/2023,2000,g 14.0,4.0
# From MPEC 2022-ST7
C/2020 S2 (PANSTARRS),e,22.4043,197.6626,202.3448,10.22257,0.0301553,0.82812817,25.7768,04/26.0/2023,2000,g 17.0,4.0
# From MPEC 2022-C56
C/2020 S3 (Erasmus),e,20.0176,222.5976,350.0947,152.5513,0.0005231,0.99740339,0.0000,12/12.0524/2020,2000,g 13.5,3.2
# From MPEC 2023-HD1
C/2020 S4 (PANSTARRS),h,02/09.2402/2023,20.5691,117.7206,20.9922,1.001300,3.369732,2000,10.8,4.0
# From MPEC 2021-BE3
P/2020 S5 (PANSTARRS),e,12.3473,315.9993,53.2240,4.054358,0.1207316,0.33846842,119.5123,04/26.0/2023,2000,g 14.5,4.0
# From MPEC 2021-BE3
P/2020 S7 (PANSTARRS),e,16.0871,328.0290,40.5877,5.030736,0.0873488,0.41066848,77.5877,04/26.0/2023,2000,g 14.5,4.0
# From MPEC 2021-P47
C/2020 S8 (Lemmon),e,108.5275,24.0679,160.2757,263.2224,0.0002308,0.99102855,0.0000,04/10.8252/2021,2000,g 12.5,4.0
# From MPEC 2022-ST7
C/2020 T2 (Palomar),e,27.8551,82.9696,150.5187,306.5396,0.0001836,0.99328841,0.0000,07/11.0178/2021,2000,g 11.0,3.2
# From MPEC 2021-N06
P/2020 T3 (PANSTARRS),e,7.2990,73.9888,357.0403,3.516983,0.1494338,0.59209851,123.3131,04/26.0/2023,2000,g 18.0,3.2
# From MPEC 2021-N06
C/2020 T4 (PANSTARRS),h,07/05.3380/2021,83.8399,50.6150,79.6069,1.000255,2.191406,2000,13.0,3.2
# From MPEC 2021-BE3
C/2020 T5 (Lemmon),e,66.5598,237.8418,90.3358,748.0952,0.0000482,0.99747175,0.0000,10/09.3263/2020,2000,g 16.0,4.0
# From MPEC 2021-N06
P/2020 U2 (PANSTARRS),e,6.4195,342.8837,84.6481,3.778057,0.1342151,0.51112320,114.2094,04/26.0/2023,2000,g 18.0,4.0
# From MPEC 2021-W31
C/2020 U3 (Rankin),e,30.1574,282.6413,124.3445,66.52890,0.0018163,0.96577143,1.4690,04/26.0/2023,2000,g 15.0,4.0
# From MPEC 2023-CD7
C/2020 U4 (PANSTARRS),h,04/09.4386/2022,167.0236,120.2993,69.9885,1.001784,5.357593,2000,7.0,4.0
# From MPEC 2022-YB4
C/2020 U5 (PANSTARRS),e,97.2732,107.3269,75.4340,3817,0.0000042,0.99901580,0.0000,04/27.9641/2022,2000,g  8.0,4.0
# From MPEC 2023-HD1
C/2020 V2 (ZTF),h,05/08.5647/2023,131.6115,212.3716,162.4298,1.001105,2.227843,2000,7.8,4.0
# From MPEC 2023-D72
P/2020 V3 (PANSTARRS),e,23.0330,198.2524,249.3667,8.385435,0.0405897,0.25693578,32.7034,04/26.0/2023,2000,g  8.3,4.0
# From MPEC 2023-FK0
P/2020 V4 (Rankin),e,14.2442,203.4830,257.0348,9.368466,0.0343717,0.45044533,22.2295,04/26.0/2023,2000,g  9.0,4.0
# From MPEC 2021-BE3
P/2020 W1 (Rankin),e,10.7870,124.2721,265.1529,7.214680,0.0508602,0.26632570,56.5773,04/26.0/2023,2000,g 10.0,4.0
# From MPEC 2021-BE3
C/2020 W5 (Lemmon),h,11/30.1136/2020,88.5965,75.4695,24.5008,1.000798,3.365357,2000,15.0,4.0
# From MPEC 2023-HD1
P/2020 WJ5 (Lemmon),e,22.2934,177.8089,338.1755,6.015955,0.0667955,0.17135815,44.3582,04/26.0/2023,2000,g 11.9,4.0
# From MPEC 2021-P47
P/2020 X1 (ATLAS),e,31.6929,55.9909,323.4317,4.530864,0.1021957,0.36545883,103.1287,04/26.0/2023,2000,g 13.0,4.0
# From MPEC 2021-U31
C/2020 X2 (ATLAS),e,18.1850,105.4206,347.3745,16.45416,0.0147669,0.76740506,13.1560,04/26.0/2023,2000,g 10.6,4.0
# From MPEC 2021-S45
C/2020 X4 (Leonard),e,80.6073,161.8830,140.3065,40.70029,0.0037958,0.87169076,3.3823,04/26.0/2023,2000,g  9.0,4.0
# From MPEC 2023-D72
C/2020 Y2 (ATLAS),e,101.3006,26.5127,266.1475,1181,0.0000243,0.99734629,0.0000,06/17.8624/2022,2000,g  6.5,4.0
# From MPEC 2021-R75
C/2020 Y3 (ATLAS),e,83.1015,191.4399,341.9535,142.7710,0.0005778,0.98601758,0.0000,12/03.3224/2020,2000,g 13.5,4.0
# From MPEC 2023-CD7
C/2021 A1 (Leonard),h,01/03.2860/2022,132.7096,255.8982,225.1118,1.000015,0.615715,2000,8.5,4.0
# From MPEC 2022-F14
C/2021 A2 (NEOWISE),e,106.9874,125.1976,338.7848,233.4943,0.0002762,0.99395229,0.0000,01/22.4303/2021,2000,g 13.5,4.0
# From MPEC 2022-ED3
C/2021 A4 (NEOWISE),e,111.5368,307.1117,204.7086,42.46925,0.0035612,0.97298336,0.0000,03/19.7571/2021,2000,g 16.0,4.0
# From MPEC 2021-BE3
P/2021 A5 (PANSTARRS),e,18.1835,328.7614,61.3454,3.047724,0.1852424,0.13989781,165.6684,04/26.0/2023,2000,g 15.0,4.0
# From MPEC 2023-HD1
C/2021 A6 (PANSTARRS),e,75.6033,164.0746,351.6393,9203,0.0000011,0.99913867,0.0000,05/03.3198/2021,2000,g  9.0,4.0
# From MPEC 2022-M88
C/2021 A7 (NEOWISE),e,78.1534,154.5035,356.0105,2345,0.0000087,0.99916158,0.0000,07/15.1959/2021,2000,g 10.0,4.0
# From MPEC 2023-FK0
C/2021 A9 (PANSTARRS),h,12/01.6182/2023,158.0181,314.8407,211.4603,1.002166,7.760126,2000,6.0,4.0
# From MPEC 2021-N06
C/2021 A10 (NEOWISE),e,151.9248,188.6797,82.3647,87.83304,0.0011973,0.98562732,0.0000,03/15.0731/2021,2000,g 19.0,4.0
# From MPEC 2022-L66
C/2021 B2 (PANSTARRS),e,38.0851,120.5231,334.9792,362.1788,0.0001430,0.99306437,0.0000,05/04.3693/2021,2000,g 14.0,4.0
# From MPEC 2021-N06
C/2021 B3 (NEOWISE),e,119.4813,67.2854,293.5400,34.48967,0.0048660,0.93734571,3.7782,04/26.0/2023,2000,g 13.5,4.0
# From MPEC 2022-ED3
C/2021 C1 (Rankin),e,143.0449,186.8967,336.2350,8769,0.0000012,0.99960343,0.0000,12/06.9219/2020,2000,g 11.5,4.0
# From MPEC 2021-U31
P/2021 C2 (PANSTARRS),e,21.9352,66.4611,78.7254,9.534764,0.0334764,0.48739509,26.4928,04/26.0/2023,2000,g 12.0,4.0
# From MPEC 2021-N06
